NORAD_CAT_ID,OBJECT_NAME,OBJECT_TYPE,EPOCH,MEAN_MOTION,ECCENTRICITY,INCLINATION,RA_OF_ASC_NODE,ARG_OF_PERICENTER,MEAN_ANOMALY,BSTAR,MEAN_MOTION_DOT,MEAN_MOTION_DDOT,TLE_LINE0,TLE_LINE1,TLE_LINE2,SEMIMAJOR_AXIS,PERIOD,APOGEE,PERIGEE,DECAYED
51790.0,STARLINK-3631,PAYLOAD,2024-01-15 02:16:13,15.08862574,0.0001571,53.2149,271.3044,93.2997,266.8175,0.00057674,8.908e-05,0.0,0 STARLINK-3631,1 51790U 22017Y   24015.09459791  .00008908  00000-0  57674-3 0  9997,2 51790  53.2149 271.3044 0001571  93.2997 266.8175 15.08862574105526,6917.811,95.436,540.763,538.59,0.0
51790.0,STARLINK-3631,PAYLOAD,2024-01-16 02:07:00,15.08850331,0.0001751,53.2159,266.8414,96.3912,263.728,0.00055922,8.626e-05,0.0,0 STARLINK-3631,1 51790U 22017Y   24016.08819834  .00008626  00000-0  55922-3 0  9996,2 51790  53.2159 266.8414 0001751  96.3912 263.7280 15.08850331105675,6917.849,95.437,540.925,538.502,0.0
51790.0,STARLINK-3631,PAYLOAD,2024-01-16 19:36:15,15.08836395,0.0001732,53.2151,263.5718,106.4421,253.6761,5.7081e-05,6.2e-06,0.0,0 STARLINK-3631,1 51790U 22017Y   24016.81684228  .00000620  00000-0  57081-4 0  9999,2 51790  53.2151 263.5718 0001732 106.4421 253.6761 15.08836395105783,6917.891,95.438,540.955,538.558,0.0
51790.0,STARLINK-3631,PAYLOAD,2024-01-16 21:11:38,15.08840086,0.0001803,53.2155,263.2746,102.8049,257.3144,4.8854e-05,4.89e-06,0.0,0 STARLINK-3631,1 51790U 22017Y   24016.88308203  .00000489  00000-0  48854-4 0  9993,2 51790  53.2155 263.2746 0001803 102.8049 257.3144 15.08840086105799,6917.88,95.438,540.992,538.498,0.0
51790.0,STARLINK-3631,PAYLOAD,2024-01-16 22:47:01,15.08839751,0.0001842,53.2153,262.9769,103.7914,256.3283,4.3386e-05,4.02e-06,0.0,0 STARLINK-3631,1 51790U 22017Y   24016.94932205  .00000402  00000-0  43386-4 0  9995,2 51790  53.2153 262.9769 0001842 103.7914 256.3283 15.08839751105804,6917.881,95.438,541.02,538.472,0.0
51790.0,STARLINK-3631,PAYLOAD,2024-01-17 22:37:48,15.0884176,0.0001644,53.2155,258.5167,105.4772,254.6402,2.494e-05,1.09e-06,0.0,0 STARLINK-3631,1 51790U 22017Y   24017.94292392  .00000109  00000-0  24940-4 0  9991,2 51790  53.2155 258.5167 0001644 105.4772 254.6402 15.08841760105953,6917.875,95.437,540.877,538.603,0.0
51790.0,STARLINK-3631,PAYLOAD,2024-01-18 01:48:34,15.08841738,0.0001707,53.2152,257.9213,112.4703,247.647,3.6472e-05,2.92e-06,0.0,0 STARLINK-3631,1 51790U 22017Y   24018.07540365  .00000292  00000-0  36472-4 0  9998,2 51790  53.2152 257.9213 0001707 112.4703 247.6470 15.08841738105971,6917.875,95.437,540.921,538.559,0.0
51790.0,STARLINK-3631,PAYLOAD,2024-01-18 22:28:35,15.08844276,0.0001666,53.2155,254.0554,106.1284,253.9892,0.00017764,2.541e-05,0.0,0 STARLINK-3631,1 51790U 22017Y   24018.93652565  .00002541  00000-0  17764-3 0  9990,2 51790  53.2155 254.0554 0001666 106.1284 253.9892 15.08844276106102,6917.867,95.437,540.885,538.58,0.0
51790.0,STARLINK-3631,PAYLOAD,2024-01-19 14:22:27,15.08843436,0.0001775,53.2153,251.0815,115.0058,245.1119,1.5504e-05,-4.1e-07,0.0,0 STARLINK-3631,1 51790U 22017Y   24019.59892613 -.00000041  00000-0  15504-4 0  9998,2 51790  53.2153 251.0815 0001775 115.0058 245.1119 15.08843436106209,6917.87,95.437,540.963,538.507,0.0
51790.0,STARLINK-3631,PAYLOAD,2024-01-19 19:08:36,15.08844939,0.0001835,53.2151,250.1904,118.7504,241.3673,0.00011663,1.569e-05,0.0,0 STARLINK-3631,1 51790U 22017Y   24019.79764380  .00001569  00000-0  11663-3 0  9995,2 51790  53.2151 250.1904 0001835 118.7504 241.3673 15.08844939106234,6917.865,95.437,541.0,538.461,0.0
51790.0,STARLINK-3631,PAYLOAD,2024-01-19 22:19:22,15.08846437,0.0001692,53.2153,249.5964,108.5025,251.6151,0.00013849,1.917e-05,0.0,0 STARLINK-3631,1 51790U 22017Y   24019.93012342  .00001917  00000-0  13849-3 0  9990,2 51790  53.2153 249.5964 0001692 108.5025 251.6151 15.08846437106252,6917.861,95.437,540.896,538.555,0.0
51790.0,STARLINK-3631,PAYLOAD,2024-01-20 14:13:14,15.08839446,0.0001779,53.2162,246.6252,104.8585,255.2605,4.6825e-05,4.57e-06,0.0,0 STARLINK-3631,1 51790U 22017Y   24020.59252713  .00000457  00000-0  46825-4 0  9991,2 51790  53.2162 246.6252 0001779 104.8585 255.2605 15.08839446106353,6917.882,95.438,540.978,538.516,0.0
51790.0,STARLINK-3631,PAYLOAD,2024-01-20 18:59:23,15.08836189,0.0001788,53.2158,245.7313,111.8565,248.2617,-8.436e-05,-1.63e-05,0.0,0 STARLINK-3631,1 51790U 22017Y   24020.79124874 -.00001630  00000-0 -84360-4 0  9991,2 51790  53.2158 245.7313 0001788 111.8565 248.2617 15.08836189106381,6917.892,95.438,540.994,538.52,0.0
51790.0,STARLINK-3631,PAYLOAD,2024-01-20 20:34:47,15.08834696,0.0001774,53.2162,245.4344,111.8439,248.2742,-0.00010268,-1.922e-05,0.0,0 STARLINK-3631,1 51790U 22017Y   24020.85748945 -.00001922  00000-0 -10268-3 0  9998,2 51790  53.2162 245.4344 0001774 111.8439 248.2742 15.08834696106393,6917.897,95.438,540.989,538.534,0.0
51790.0,STARLINK-3631,PAYLOAD,2024-01-21 22:00:57,15.08843643,0.0001499,53.2158,240.6746,108.7192,251.3963,0.00011243,1.502e-05,0.0,0 STARLINK-3631,1 51790U 22017Y   24021.91732665  .00001502  00000-0  11243-3 0  9994,2 51790  53.2158 240.6746 0001499 108.7192 251.3963 15.08843643106556,6917.869,95.437,540.771,538.697,0.0
51790.0,STARLINK-3631,PAYLOAD,2024-01-21 23:36:20,15.08844847,0.0001562,53.2157,240.3771,112.6946,247.4212,0.0001464,2.043e-05,0.0,0 STARLINK-3631,1 51790U 22017Y   24021.98356587  .00002043  00000-0  14640-3 0  9991,2 51790  53.2157 240.3771 0001562 112.6946 247.4212 15.08844847106563,6917.866,95.437,540.811,538.65,0.0
51790.0,STARLINK-3631,PAYLOAD,2024-01-22 18:40:58,15.08835702,0.0001488,53.2162,236.8065,100.5425,259.5735,1.6646e-05,-2.3e-07,0.0,0 STARLINK-3631,1 51790U 22017Y   24022.77845343 -.00000023  00000-0  16646-4 0  9998,2 51790  53.2162 236.8065 0001488 100.5425 259.5735 15.08835702106687,6917.894,95.438,540.788,538.729,0.0
51790.0,STARLINK-3631,PAYLOAD,2024-01-22 21:51:44,15.08838076,0.0001355,53.2164,236.2138,91.8936,268.2211,0.00010839,1.437e-05,0.0,0 STARLINK-3631,1 51790U 22017Y   24022.91093413  .00001437  00000-0  10839-3 0  9993,2 51790  53.2164 236.2138 0001355  91.8936 268.2211 15.08838076106702,6917.886,95.438,540.689,538.814,0.0
51790.0,STARLINK-3631,PAYLOAD,2024-01-23 05:48:40,15.08842142,0.000137,53.2144,234.7287,85.4422,274.6726,0.00015711,2.214e-05,0.0,0 STARLINK-3631,1 51790U 22017Y   24023.24213214  .00002214  00000-0  15711-3 0  9991,2 51790  53.2144 234.7287 0001370  85.4422 274.6726 15.08842142106750,6917.874,95.437,540.687,538.791,0.0
51790.0,STARLINK-3631,PAYLOAD,2024-01-23 15:20:58,15.08849997,0.0001321,53.2142,232.9445,85.7468,274.3675,0.00016383,2.321e-05,0.0,0 STARLINK-3631,1 51790U 22017Y   24023.63956844  .00002321  00000-0  16383-3 0  9992,2 51790  53.2142 232.9445 0001321  85.7468 274.3675 15.08849997106815,6917.85,95.437,540.629,538.801,0.0
51790.0,STARLINK-3631,PAYLOAD,2024-01-23 21:42:31,15.08851105,0.0001347,53.2142,231.7548,86.8039,273.3108,0.00027972,4.168e-05,0.0,0 STARLINK-3631,1 51790U 22017Y   24023.90452729  .00004168  00000-0  27972-3 0  9992,2 51790  53.2142 231.7548 0001347  86.8039 273.3108 15.08851105106858,6917.846,95.437,540.643,538.78,0.0
51790.0,STARLINK-3631,PAYLOAD,2024-01-24 04:04:04,15.08838906,0.0001456,53.214,230.5656,82.1996,277.9161,4.8061e-05,4.77e-06,0.0,0 STARLINK-3631,1 51790U 22017Y   24024.16949158  .00000477  00000-0  48061-4 0  9990,2 51790  53.2140 230.5656 0001456  82.1996 277.9161 15.08838906106892,6917.884,95.438,540.756,538.741,0.0
51790.0,STARLINK-3631,PAYLOAD,2024-01-24 13:36:22,15.08842416,0.0001389,53.214,228.781,91.6311,268.4841,0.00012572,1.714e-05,0.0,0 STARLINK-3631,1 51790U 22017Y   24024.56693061  .00001714  00000-0  12572-3 0  9995,2 51790  53.2140 228.7810 0001389  91.6311 268.4841 15.08842416106952,6917.873,95.437,540.699,538.777,0.0
51790.0,STARLINK-3631,PAYLOAD,2024-01-24 21:33:18,15.08845482,0.0001377,53.2139,227.2942,89.6841,270.4309,0.00019398,2.801e-05,0.0,0 STARLINK-3631,1 51790U 22017Y   24024.89812830  .00002801  00000-0  19398-3 0  9999,2 51790  53.2139 227.2942 0001377  89.6841 270.4309 15.08845482107007,6917.864,95.437,540.681,538.776,0.0
51790.0,STARLINK-3631,PAYLOAD,2024-01-24 23:08:41,15.08845948,0.000137,53.2139,226.9969,88.4969,271.618,0.00021899,3.2e-05,0.0,0 STARLINK-3631,1 51790U 22017Y   24024.96436826  .00003200  00000-0  21899-3 0  9997,2 51790  53.2139 226.9969 0001370  88.4969 271.6180 15.08845948107011,6917.862,95.437,540.675,538.779,0.0
51790.0,STARLINK-3631,PAYLOAD,2024-01-25 18:13:19,15.08840829,0.0001376,53.2142,223.4281,90.2018,269.9132,0.00015731,2.217e-05,0.0,0 STARLINK-3631,1 51790U 22017Y   24025.75925186  .00002217  00000-0  15731-3 0  9992,2 51790  53.2142 223.4281 0001376  90.2018 269.9132 15.08840829107139,6917.878,95.438,540.695,538.791,0.0
51790.0,STARLINK-3631,PAYLOAD,2024-01-25 22:59:28,15.0884222,0.0001365,53.2142,222.5362,88.5775,271.5373,0.00021438,3.126e-05,0.0,0 STARLINK-3631,1 51790U 22017Y   24025.95797181  .00003126  00000-0  21438-3 0  9997,2 51790  53.2142 222.5362 0001365  88.5775 271.5373 15.08842220107163,6917.874,95.437,540.683,538.794,0.0
51790.0,STARLINK-3631,PAYLOAD,2024-01-26 19:39:29,15.08850747,0.0001329,53.2143,218.67,89.5233,270.5911,0.00032182,4.839e-05,0.0,0 STARLINK-3631,1 51790U 22017Y   24026.81908766  .00004839  00000-0  32182-3 0  9996,2 51790  53.2143 218.6700 0001329  89.5233 270.5911 15.08850747107290,6917.848,95.437,540.632,538.793,0.0
51790.0,STARLINK-3631,PAYLOAD,2024-01-27 13:08:43,15.08845163,0.0001287,53.2143,215.3978,94.3082,265.8058,0.00018846,2.713e-05,0.0,0 STARLINK-3631,1 51790U 22017Y   24027.54772872  .00002713  00000-0  18846-3 0  9994,2 51790  53.2143 215.3978 0001287  94.3082 265.8058 15.08845163107408,6917.865,95.437,540.62,538.839,0.0
51790.0,STARLINK-3631,PAYLOAD,2024-01-27 17:54:53,15.08849445,0.0001399,53.2152,214.5064,94.2143,265.9009,0.00022418,3.283e-05,0.0,0 STARLINK-3631,1 51790U 22017Y   24027.74644687  .00003283  00000-0  22418-3 0  9991,2 51790  53.2152 214.5064 0001399  94.2143 265.9009 15.08849445107433,6917.852,95.437,540.684,538.749,0.0
